[
    {
        "Altitude(m)": 622200.1287955033,
        "Argument of Periapsis(deg)": 0.0,
        "Eccentricity": 0.0,
        "Inclination(deg)": 60.0,
        "Latitude(deg)": -52.1625978284856,
        "Longitude(deg)": -17.639117861759065,
        "Mean Anomaly(deg)": -65.45449999999998,
        "RAAN(deg)": 130.0,
        "Satellite Name": "Test1 590",
        "Satellite Number": 590,
        "Semi-Major Axis(m)": 6980739.136638005,
        "Time(s)": 0
    },
    {
        "Altitude(m)": 622058.2961181377,
        "Argument of Periapsis(deg)": 0.00010418945913296404,
        "Eccentricity": 0.0,
        "Inclination(deg)": 60.0,
        "Latitude(deg)": -51.799346125053056,
        "Longitude(deg)": -16.871060661432793,
        "Mean Anomaly(deg)": -64.83439385453813,
        "RAAN(deg)": 129.99957995086024,
        "Satellite Name": "Test1 590",
        "Satellite Number": 590,
        "Semi-Major Axis(m)": 6980739.136638005,
        "Time(s)": 10
    }
]